#dP2024  6 16  0  0  0.00000000      96 __u+U IGS20 EXT  IAC
## 2319      0.00000000   900.00000000 60477 0.0000000000000
+   54   G02G03G04G05G06G07G08G09G10G11G12G13G14G15G16G17G18
+        G19G20G21G22G23G24G25G26G27G28G29G30G31G32R01R02R03
+        R04R05R07R08R09R11R12R13R14R15R16R17R18R19R20R21R22
+        R24R25R26  0  0  0  0  0  0  0  0  0  0  0  0  0  0
+          0  0  0  0  0  0  0  0  0  0  0  0  0  0  0  0  0
++         8  7  7 10  8  9  9  8  7  8  9  8  7  8  8  9  9
++         7 10  8  7  9  9  8  8  8  9  8  8  7  8  8  8  7
++         7  7  8  9  7  8  7  9  8  7  9  9  9  7  7  7  7
++         9  8  8  0  0  0  0  0  0  0  0  0  0  0  0  0  0
++         0  0  0  0  0  0  0  0  0  0  0  0  0  0  0  0  0
%c M  cc GPS ccc cccc cccc cccc cccc ccccc ccccc ccccc ccccc
%c cc cc ccc ccc cccc cccc cccc cccc ccccc ccccc ccccc ccccc
%f  0.0000000  0.000000000  0.00000000000  0.000000000000000
%f  0.0000000  0.000000000  0.00000000000  0.000000000000000
%i    0    0    0    0      0      0      0      0         0
%i    0    0    0    0      0      0      0      0         0
/* IAC                                ULTRA-RAPID PREDICTION
/* S/V CLOCKS ARE ALIGNED TO GNSS TIME                      
/* G:C1WC2W R:C1PC2P E:C1XC5X C:C2IC6I J:C1CC2S             
/* PCV:IGS20_2317 OL/AL:FES2004  NONE     YN ORB:CoN CLK:CoN
*  2024 06 16  5 30  0.00000000
PG02 -15589.857011 -13357.325785 -16539.149231   -416.847852
PG03 -12648.709200 -22036.774069   7790.803339    415.657255
PG04  -8538.568292 -12786.246776  21663.389910    384.178601
PG05   4535.019050  25110.466775   7027.743479   -176.484997
PG06 -20139.264251   6437.938029  16202.838916    215.912200
PG07 -26055.914737  -6292.853742   1239.082728    -91.828968
PG08    351.693545 -19893.383826 -17492.744871    231.922251
PG09 -17557.967052   -815.164932  19844.730676    236.551357
PG10  12915.731664  -7153.936360 -21847.692074    -43.923795
PG11  -7098.804643  13642.868545  21672.783169   -686.415829
PG12  10178.101966  23833.732154   5650.702781   -514.487491
PG13 -10215.502777  20577.377181 -13329.228111    658.243725
PG14 -15280.548753   3024.767561 -21483.885865    426.537382
PG15   2431.789794  20111.280765 -17583.247420    170.664077
PG16    901.401072 -24468.719441   9374.774763   -263.000203
PG17 -21529.844932  11355.180985 -10402.648926    693.845731
PG18  26062.100825   5658.415878   -322.726531   -625.501854
PG19 -20513.539109  16358.632617  -2509.751703    497.089243
PG20  -1243.756633  21351.210255  15905.610043    373.789324
PG21 -10762.733998 -14715.166114 -19222.836909    115.152232
PG22 -11631.340265  12168.449512 -20197.419694    -27.884539
PG23  16449.578524   5939.861265 -20028.060867    251.437403
PG24  13310.807937  14904.702614 -18110.313761   -477.999195
PG25  15869.569878  16567.962157  13267.903364    497.402028
PG26   8645.443329 -15995.759175  19088.342978    136.197042
PG27  10617.789327 -22258.224708  -9570.229004    -28.368028
PG28  21728.850739  -6151.760277  13970.474665   -290.899260
PG29  15499.538659   4949.260247  20964.296207   -594.006556
PG30 -24809.556097   2011.066551  -9486.743654   -373.497649
PG31  12683.954955 -11700.656777  20077.692715   -227.370524
PG32  20505.856789 -13917.491221  -9061.777347   -616.075075
PR01  -9417.913416  23502.403452   3030.104312     88.539513
PR02  -1413.415762  21535.179894 -13602.826242    -23.306741
PR03   8543.655153   7634.855547 -22747.341161    102.177344
PR04  13326.498434 -10017.244838 -19271.556269    241.307922
PR05  11203.133570 -22250.190932  -5426.582320    133.159834
PR07  -8953.259609  -6767.614135  22944.204153     84.665769
PR08 -13389.828286  10322.249026  19173.419657     -5.021033
PR09 -11523.985265 -20461.031065  10088.614331    192.476324
PR11 -15792.321019  -4169.856352 -19586.182844     21.261123
PR12  -2854.849630  12854.466516 -21819.420877     41.367013
PR13   9489.180114  20151.536919 -12440.206995    -48.395056
PR14  18397.563817  16180.591953   7073.150656     26.581424
PR15  15101.452056   2690.511383  20401.238299     78.770683
PR16   2873.694170 -12636.995579  21992.263591     26.532735
PR17  20481.206560   3483.417750  14832.477913     96.259384
PR18  25121.134079  -4214.903083   -761.406733    147.249261
PR19  18744.689213  -8966.096462 -14807.069235   -280.490181
PR20  -2697.426712 -10134.309971 -23251.875356   -114.591879
PR21 -20193.130029  -3761.984909 -15110.376575   -109.656221
PR22 -25095.134169   4160.725927   1988.311889    102.117687
PR24   3805.590514  10374.362362  23000.872553    -60.030959
PR25 -20500.668590  -4360.505954 -14521.759394    -58.940470
PR26 -13183.825654   9090.872811  19866.613700     -6.211248
*  2024 06 16  5 45  0.00000000
PG02 -13522.607088 -13316.291258 -18229.040444   -416.841484
PG03 -12743.096634 -22797.942256   5019.438689    415.673351
PG04  -6871.695276 -14574.508474  21107.722307    384.185896
PG05   3953.494912  24292.238387   9690.837616   -176.486130
PG06 -21802.070501   6005.630324  14078.553387    215.893107
PG07 -25776.135511  -6493.996092   4025.521657    -91.819590
PG08   1670.101715 -21269.395460 -15653.746091    231.938578
PG09 -16173.952576  -2707.694983  20820.186635    236.564503
PG10  13812.317103  -4769.238344 -21976.883803    -43.931252
PG11  -9472.404879  13066.533336  21107.722305   -686.423037
PG12  10087.668512  24398.822490   2849.426127   -514.490336
PG13 -11359.837616  21345.850217 -10920.528337    658.246170
PG14 -16044.937701    696.809012 -21145.153264    426.545581
PG15   1309.111177  21582.996411 -15800.194696    170.667892
PG16   1485.316841 -23306.307558  11884.186397   -262.990728
PG17 -20727.121938  10214.450335 -12821.286038    693.840598
PG18  25901.605496   5832.358800   2544.225851   -625.506218
PG19 -20383.018264  15868.510375  -5356.046504    497.094091
PG20  -2349.141775  19787.022081  17695.868386    373.788960
PG21  -8441.479520 -14594.658393 -20323.177505    115.150012
PG22 -12328.632481   9831.193753 -20997.778825    -27.888961
PG23  17188.626004   8021.240408 -18653.468499    251.445662
PG24  11238.232746  14885.928175 -19473.459789   -478.001439
PG25  16174.646994  17979.149065  10938.255022    497.402508
PG26   9741.540613 -13975.481914  20143.245398    136.191387
PG27  11399.165862 -22804.403896  -6901.837485    -28.369180
PG28  23154.684541  -5745.218184  11664.509153   -290.914352
PG29  13833.602837   6735.650563  21609.609178   -594.004962
PG30 -25700.103972   1566.031171  -6912.746060   -373.492073
PG31  14884.753390 -11165.794269  18882.585992   -227.370346
PG32  19923.660448 -12823.807358 -11584.231727   -616.073977
PR01  -9117.342953  22999.309860   6178.169686     88.540531
PR02  -1765.402668  23017.659077 -10874.318573    -23.306886
PR03   7708.657397  10279.023030 -21998.263834    102.178108
PR04  12438.171698  -7694.454292 -20865.179825    241.309517
PR05  10760.008015 -21490.897657  -8505.078051    133.160348
PR07  -8103.445204  -9418.525818  22311.436074     84.666438
PR08 -12534.352620   8022.705871  20786.456634     -5.021439
PR09 -10615.215314 -19383.285078  12837.470808    192.478090
PR11 -17408.222903  -5813.822814 -17710.836479     21.259952
PR12  -4669.675544  10791.282444 -22608.236212     41.367376
PR13   8419.210126  18836.922342 -15007.093100    -48.395397
PR14  18938.906384  16605.844669   3968.726456     26.581436
PR15  16762.593193   4436.316681  18727.724702     78.770336
PR16   4700.100858 -10571.400413  22751.758229     26.533014
PR17  18517.797539   3733.778787  17165.499192     96.262406
PR18  24980.490575  -4394.265245   2478.412900    147.250943
PR19  20362.666433  -9400.715940 -12164.506322   -280.491473
PR20    140.771567 -10573.207197 -23209.427134   -114.592517
PR21 -18192.706165  -3999.391492 -17417.601848   -109.659042
PR22 -25115.166282   4315.550009  -1223.418476    102.113354
PR24   1021.853696  10928.467007  23034.813236    -60.032362
PR25 -18569.990109  -4560.283233 -16869.566223    -58.968897
PR26 -12327.071388   6700.679562  21317.344284     -6.210540
EOF
